STARLINK-35814          
1 66576U 25268V   25354.58336806  .00181793  00000+0  24694-2 0  9996
2 66576  43.0008  75.2112 0001800 277.3286 144.8816 15.56243546  5928
STARLINK-35815          
1 66577U 25268W   25354.50910756  .00094527  00000+0  15436-2 0  9993
2 66577  43.0031  75.6638 0023776  54.8873 305.4212 15.51230363  5831
STARLINK-35743          
1 66578U 25268X   25353.54286219  .00144840  00000+0  24134-2 0  9996
2 66578  42.9979  81.3160 0000651 284.5171  75.5617 15.50763067  5683
STARLINK-35868          
1 66579U 25268Y   25354.58336806  .00181259  00000+0  24621-2 0  9996
2 66579  43.0007  75.1978 0001841 280.6526 147.3068 15.56246116  5921
STARLINK-35872          
1 66580U 25268Z   25353.60656196  .00165853  00000+0  27444-2 0  9995
2 66580  42.9993  80.9317 0002511 162.1716 197.9233 15.50873267  5692
STARLINK-35744          
1 66581U 25268AA  25354.50774006  .00071548  00000+0  11801-2 0  9994
2 66581  43.0014  75.6513 0019417  38.7334 321.4915 15.51171688  5831
STARLINK-35746          
1 66582U 25268AB  25354.50739844  .00097588  00000+0  16006-2 0  9990
2 66582  43.0006  75.6486 0019685  40.0324 320.1984 15.51195543  5832
STARLINK-35941          
1 66583U 25268AC  25354.24943141  .00103155  00000+0  16923-2 0  9995
2 66583  43.0013  77.1533 0012733  76.6546 283.5733 15.51292790  5790
STARLINK-35939          
1 66584U 25268AD  25353.60518367  .00076356  00000+0  12867-2 0  9998
2 66584  42.9992  80.9182 0002615 187.8218 172.2602 15.50751867  5698
STARLINK-35963          
1 66585U 25268AE  25354.58336806  .00188146  00000+0  25586-2 0  9996
2 66585  43.0007  75.1686 0001531 266.8516 172.6030 15.56189581  5927
TJS-21                  
1 66586U 25269A   25352.70706567  .00001084  00000+0 -59507-1 0  9990
2 66586  63.2733 161.7218 6806869 269.7428  18.6663  2.00580748   558
CZ-3B R/B               
1 66587U 25269B   25352.18178135  .00088610 -14474-5  58948-3 0  9993
2 66587  51.3412 168.3764 7516645 229.6756  36.1575  2.04054650   560
